OBJECT_NAME,OBJECT_ID,EPOCH,MEAN_MOTION,ECCENTRICITY,INCLINATION,RA_OF_ASC_NODE,ARG_OF_PERICENTER,MEAN_ANOMALY,EPHEMERIS_TYPE,CLASSIFICATION_TYPE,NORAD_CAT_ID,ELEMENT_SET_NO,REV_AT_EPOCH,BSTAR,MEAN_MOTION_DOT,MEAN_MOTION_DDOT
SHIJIAN-17 (SJ-17),2016-065A,2026-07-02T09:51:41.576832,0.99860955,.0002197,5.7891,72.4241,35.3187,173.7243,0,U,41838,999,3535,0,.131E-5,0
GOES 16,2016-071A,2026-07-04T13:23:23.299584,1.00271917,.0000534,0.3808,85.6839,47.1691,245.8762,0,U,41866,999,3527,0,-.79E-6,0
TIANLIAN 1-04,2016-072A,2026-07-03T07:59:38.562144,1.00275040,.00435784,0.9098,82.8084,90.4618,44.8571,0,U,41869,999,3546,0,.42E-6,0
WGS F8 (USA 272),2016-075A,2026-07-02T20:39:55.799136,1.00267189,.00000487,0.0477,61.7262,6.6830,312.3318,0,U,41879,999,3497,0,0,0
FENGYUN 4A,2016-077A,2026-07-04T12:45:50.041152,1.00274952,.00079679,2.3641,80.0977,157.9174,359.7446,0,U,41882,999,3510,0,-.345E-5,0
ECHOSTAR 19,2016-079A,2026-07-02T15:13:51.162816,1.00276643,.0001703,0.0183,29.6206,84.7699,297.6529,0,U,41893,999,3485,0,-.129E-5,0
JCSAT-110A (JCSAT-15),2016-082A,2026-07-02T21:18:08.284896,1.00270379,.00008027,0.0176,15.8785,94.2248,240.4195,0,U,41903,999,3491,0,-.34E-5,0
STAR ONE D1,2016-082B,2026-07-04T13:29:15.237888,1.00267608,.00021384,0.0463,65.6475,53.0970,282.1782,0,U,41904,999,3494,0,0,0
TJS-2,2017-001A,2026-07-04T15:49:10.768224,1.00273198,.00008369,0.8756,85.1178,67.0773,74.3321,0,U,41911,999,3489,0,.5E-7,0
SBIRS GEO-4 (USA 273),2017-004A,2026-07-02T20:23:27.648384,1.00287153,.00029706,2.2711,43.6757,58.6191,145.5771,0,U,41937,999,3475,0,.136E-5,0
HISPASAT 36W-1,2017-006A,2026-07-02T18:56:40.956288,1.00269597,.00008134,0.0045,259.3148,212.5593,57.1200,0,U,41942,999,3440,0,-.234E-5,0
TELKOM 3S,2017-007A,2026-07-02T19:45:53.928576,1.00269766,.00024463,0.0158,320.7379,142.2908,232.2974,0,U,41944,999,3429,0,-.352E-5,0
INTELSAT 32E (IS-32E),2017-007B,2026-07-02T10:21:16.242336,1.00263397,.00009542,0.0218,28.0694,325.1520,39.3916,0,U,41945,999,3437,0,0,0
ECHOSTAR 23,2017-014A,2026-07-02T15:10:14.010240,1.00268078,.00018629,0.0187,36.0750,59.4884,302.7662,0,U,42070,999,3407,0,-.46E-6,0
WGS F9 (USA 275),2017-016A,2026-07-03T08:44:41.448768,1.00270808,.00004621,0.0188,11.6353,129.8546,259.0843,0,U,42075,999,3405,0,-.85E-6,0
SES-10,2017-017A,2026-07-02T13:39:50.372064,1.00273517,.0003014,0.0186,42.4916,63.1872,312.9916,0,U,42432,999,3390,0,-.262E-5,0
CHINASAT 16 (SJ-13),2017-018A,2026-07-03T05:54:11.545344,1.00274596,.00044321,0.0967,89.1400,130.5966,260.5869,0,U,42662,999,3391,0,-.341E-5,0
KOREASAT 7,2017-023A,2026-07-02T19:42:43.936704,1.00267351,.00006844,0.0213,341.6245,86.5135,264.2568,0,U,42691,999,3352,0,-.351E-5,0
SGDC,2017-023B,2026-07-03T10:13:41.670336,1.00270391,.00027567,0.0133,348.8700,119.6259,251.5309,0,U,42692,999,3356,0,-.238E-5,0
GSAT-9,2017-024A,2026-07-04T14:20:59.313408,1.00271888,.00021684,0.0616,91.6730,22.1257,121.3766,0,U,42695,999,3347,0,-.274E-5,0
INMARSAT 5-F4,2017-025A,2026-07-02T20:58:51.178944,1.00269474,.00005087,0.0246,41.3937,138.1758,112.5603,0,U,42698,999,3343,0,0,0
SES-15,2017-026A,2026-07-02T16:47:25.712160,1.00268893,.00006496,0.0224,333.2991,116.3241,313.8103,0,U,42709,999,758,0,.71E-6,0
QZS-2 (MICHIBIKI-2),2017-028A,2026-07-03T11:21:38.748096,1.00279734,.07585688,39.4029,242.9137,269.4566,81.7440,0,U,42738,999,778,0,-.107E-5,0
VIASAT-2,2017-029A,2026-07-02T13:38:57.954912,1.00269077,.0000414,0.0220,295.9562,128.6843,350.8345,0,U,42740,999,3335,0,-.254E-5,0
EUTELSAT 172B,2017-029B,2026-07-04T06:30:38.815776,1.00271477,.00001524,0.0297,122.5064,308.7449,120.6950,0,U,42741,999,3391,0,.6E-7,0
GSAT-19,2017-031A,2026-07-02T18:21:48.608352,1.00273565,.00069353,0.0038,122.7837,317.7152,163.6350,0,U,42747,999,3330,0,.136E-5,0
ECHOSTAR 21,2017-032A,2026-07-04T13:56:12.652800,1.00270854,.00024207,1.7698,356.7806,96.0233,49.0997,0,U,42749,999,3327,0,.78E-6,0
BULGARIASAT-1,2017-038A,2026-07-03T13:56:27.576672,1.00271290,.00030477,0.0466,78.9199,29.1976,24.4846,0,U,42801,999,3301,0,.22E-6,0
HELLAS-SAT 3,2017-040A,2026-07-04T14:04:26.864256,1.00272896,.00038907,0.0541,51.7019,13.4503,107.5522,0,U,42814,999,3298,0,.165E-5,0
GSAT-17,2017-040B,2026-07-04T14:19:59.407968,1.00269588,.00015098,0.0454,88.6154,185.5259,316.9492,0,U,42815,999,3296,0,-.245E-5,0
INTELSAT 35E (IS-35E),2017-041A,2026-07-04T09:44:58.883712,1.00273366,.00019451,0.0181,37.5008,60.9092,295.7585,0,U,42818,999,3298,0,-.226E-5,0
COSMOS 2520,2017-046A,2026-07-02T05:38:27.625344,1.00268661,.0000565,0.0408,105.0003,9.5607,295.2988,0,U,42907,999,3254,0,.148E-5,0
